ONEWEB-0228             
1 48780U 21045P   24241.65469118  .00000184  00000+0  45455-3 0  9990
2 48780  87.9057  30.0208 0001657  96.9560 263.1759 13.15547633157871
